{
    "links": {
        "self": "http://www.neowsapp.com/rest/v1/neo/3693826?api_key=iIulBulltgU6a56xZRHN4H3l9WmuAYTsLGpBGhQ2"
    },
    "id": "3693826",
    "neo_reference_id": "3693826",
    "name": "(2014 UA8)",
    "designation": "2014 UA8",
    "nasa_jpl_url": "http://ssd.jpl.nasa.gov/sbdb.cgi?sstr=3693826",
    "absolute_magnitude_h": 25.1,
    "estimated_diameter": {
        "kilometers": {
            "estimated_diameter_min": 0.0253837029,
            "estimated_diameter_max": 0.0567596853
        },
        "meters": {
            "estimated_diameter_min": 25.3837029364,
            "estimated_diameter_max": 56.7596852866
        },
        "miles": {
            "estimated_diameter_min": 0.0157726969,
            "estimated_diameter_max": 0.0352688224
        },
        "feet": {
            "estimated_diameter_min": 83.279867942,
            "estimated_diameter_max": 186.2194458756
        }
    },
    "is_potentially_hazardous_asteroid": false,
    "close_approach_data": [
        {
            "close_approach_date": "2014-10-23",
            "close_approach_date_full": "2014-Oct-23 17:07",
            "epoch_date_close_approach": 1414084020000,
            "relative_velocity": {
                "kilometers_per_second": "12.2401803025",
                "kilometers_per_hour": "44064.6490888369",
                "miles_per_hour": "27380.0593185609"
            },
            "miss_distance": {
                "astronomical": "0.0207820199",
                "lunar": "8.0842057411",
                "kilometers": "3108945.911337613",
                "miles": "1931809.4101125394"
            },
            "orbiting_body": "Earth"
        }
    ],
    "orbital_data": {
        "orbit_id": "5",
        "orbit_determination_date": "2017-04-06 08:38:04",
        "first_observation_date": "2014-10-21",
        "last_observation_date": "2014-10-24",
        "data_arc_in_days": 3,
        "observations_used": 26,
        "orbit_uncertainty": "8",
        "minimum_orbit_intersection": ".00848652",
        "jupiter_tisserand_invariant": "3.065",
        "epoch_osculation": "2456952.5",
        "eccentricity": ".6519714529697639",
        "semi_major_axis": "2.611451100461519",
        "inclination": "3.041955951246586",
        "ascending_node_longitude": "42.22172148712272",
        "orbital_period": "1541.421009015218",
        "perihelion_distance": ".9088595321341336",
        "perihelion_argument": "29.01366123112759",
        "aphelion_distance": "4.314042668788905",
        "perihelion_time": "2456983.700601072033",
        "mean_anomaly": "352.7130768815018",
        "mean_motion": ".2335507287720157",
        "equinox": "J2000",
        "orbit_class": {
            "orbit_class_type": "APO",
            "orbit_class_description": "Near-Earth asteroid orbits which cross the Earth’s orbit similar to that of 1862 Apollo",
            "orbit_class_range": "a (semi-major axis) > 1.0 AU; q (perihelion) < 1.017 AU"
        }
    },
    "is_sentry_object": false
}